NORAD_CAT_ID,OBJECT_NAME,OBJECT_TYPE,EPOCH,MEAN_MOTION,ECCENTRICITY,INCLINATION,RA_OF_ASC_NODE,ARG_OF_PERICENTER,MEAN_ANOMALY,BSTAR,MEAN_MOTION_DOT,MEAN_MOTION_DDOT,TLE_LINE0,TLE_LINE1,TLE_LINE2,SEMIMAJOR_AXIS,PERIOD,APOGEE,PERIGEE,DECAYED
55746.0,STARLINK-5579,PAYLOAD,2024-07-20 17:44:49,14.98334162,0.0002513,70.0036,309.549,265.9343,94.1528,2.3669e-05,1.9e-06,0.0,0 STARLINK-5579,1 55746U 23028F   24202.73946732  .00000190  00000-0  23669-4 0  9993,2 55746  70.0036 309.5490 0002513 265.9343  94.1528 14.98334162 76629,6950.18,96.107,573.792,570.298,0.0
55746.0,STARLINK-5579,PAYLOAD,2024-07-21 11:22:18,14.9833483,0.0002713,70.0034,307.6977,265.0066,95.0783,7.2884e-05,7.77e-06,0.0,0 STARLINK-5579,1 55746U 23028F   24203.47382519  .00000777  00000-0  72884-4 0  9996,2 55746  70.0034 307.6977 0002713 265.0066  95.0783 14.98334830 76738,6950.178,96.107,573.929,570.157,0.0
55746.0,STARLINK-5579,PAYLOAD,2024-07-21 14:34:34,14.98333828,0.0002622,70.0034,307.3611,262.04,98.0462,7.0388e-05,7.47e-06,0.0,0 STARLINK-5579,1 55746U 23028F   24203.60734586  .00000747  00000-0  70388-4 0  9990,2 55746  70.0034 307.3611 0002622 262.0400  98.0462 14.98333828 76753,6950.181,96.107,573.868,570.224,0.0
55746.0,STARLINK-5579,PAYLOAD,2024-07-21 16:10:42,14.98335131,0.0002639,70.0034,307.1928,262.252,97.834,9.4449e-05,1.034e-05,0.0,0 STARLINK-5579,1 55746U 23028F   24203.67410498  .00001034  00000-0  94449-4 0  9994,2 55746  70.0034 307.1928 0002639 262.2520  97.8340 14.98335131 76767,6950.177,96.107,573.876,570.208,0.0
55746.0,STARLINK-5579,PAYLOAD,2024-07-22 09:48:11,14.98330235,0.0002675,70.003,305.3417,264.0996,95.9859,0.00016309,1.854e-05,0.0,0 STARLINK-5579,1 55746U 23028F   24204.40846730  .00001854  00000-0  16309-3 0  9996,2 55746  70.0030 305.3417 0002675 264.0996  95.9859 14.98330235 76879,6950.192,96.107,573.916,570.198,0.0
55746.0,STARLINK-5579,PAYLOAD,2024-07-22 16:12:42,14.98359936,0.000287,70.003,304.6684,263.3089,96.7743,-0.00094797,-0.00011394,0.0,0 STARLINK-5579,1 55746U 23028F   24204.67548811 -.00011394  00000-0 -94797-3 0  9993,2 55746  70.0030 304.6684 0002870 263.3089  96.7743 14.98359936 76914,6950.1,96.105,573.96,569.971,0.0
55746.0,STARLINK-5579,PAYLOAD,2024-07-23 09:50:12,14.98335717,0.0002658,70.0014,302.817,261.1815,98.9043,0.00015407,1.746e-05,0.0,0 STARLINK-5579,1 55746U 23028F   24205.40986418  .00001746  00000-0  15407-3 0  9993,2 55746  70.0014 302.8170 0002658 261.1815  98.9043 14.98335717 77024,6950.175,96.107,573.888,570.193,0.0
55746.0,STARLINK-5579,PAYLOAD,2024-07-24 09:52:13,14.9832957,0.0002856,70.0013,300.2925,260.8459,99.2377,3.2984e-05,3.01e-06,0.0,0 STARLINK-5579,1 55746U 23028F   24206.41126968  .00000301  00000-0  32984-4 0  9997,2 55746  70.0013 300.2925 0002856 260.8459  99.2377 14.98329570 77173,6950.194,96.107,574.044,570.074,0.0
55746.0,STARLINK-5579,PAYLOAD,2024-07-25 06:41:58,14.98331384,0.0003006,70.0014,298.1055,263.8843,96.1973,0.00014311,1.615e-05,0.0,0 STARLINK-5579,1 55746U 23028F   24207.27914591  .00001615  00000-0  14311-3 0  9991,2 55746  70.0014 298.1055 0003006 263.8843  96.1973 14.98331384 77300,6950.189,96.107,574.143,569.964,0.0
55746.0,STARLINK-5579,PAYLOAD,2024-07-25 09:54:14,14.98332894,0.0003106,70.0009,297.7672,265.9336,94.1468,0.00015595,1.768e-05,0.0,0 STARLINK-5579,1 55746U 23028F   24207.41266485  .00001768  00000-0  15595-3 0  9993,2 55746  70.0009 297.7672 0003106 265.9336  94.1468 14.98332894 77321,6950.184,96.107,574.208,569.89,0.0
55746.0,STARLINK-5579,PAYLOAD,2024-07-25 16:18:46,14.98335727,0.0002855,70.0007,297.0925,262.0005,98.0831,0.00018108,2.069e-05,0.0,0 STARLINK-5579,1 55746U 23028F   24207.67970198  .00002069  00000-0  18108-3 0  9992,2 55746  70.0007 297.0925 0002855 262.0005  98.0831 14.98335727 77363,6950.175,96.107,574.024,570.056,0.0
55746.0,STARLINK-5579,PAYLOAD,2024-07-26 09:56:15,14.98332106,0.0002933,70.0004,295.2408,265.4864,94.596,0.00013869,1.562e-05,0.0,0 STARLINK-5579,1 55746U 23028F   24208.41406399  .00001562  00000-0  13869-3 0  9998,2 55746  70.0004 295.2408 0002933 265.4864  94.5960 14.98332106 77477,6950.186,96.107,574.09,570.013,0.0
55746.0,STARLINK-5579,PAYLOAD,2024-07-26 14:44:39,14.98336003,0.0002878,70.0004,294.7358,266.3464,93.7366,0.00017383,1.982e-05,0.0,0 STARLINK-5579,1 55746U 23028F   24208.61434033  .00001982  00000-0  17383-3 0  9997,2 55746  70.0004 294.7358 0002878 266.3464  93.7366 14.98336003 77504,6950.174,96.107,574.04,570.039,0.0
55746.0,STARLINK-5579,PAYLOAD,2024-07-27 06:46:00,14.98333391,0.000282,70.0005,293.0527,266.1874,93.8963,-6.0029e-07,-1e-06,0.0,0 STARLINK-5579,1 55746U 23028F   24209.28194457 -.00000100  00000-0 -60029-6 0  9995,2 55746  70.0005 293.0527 0002820 266.1874  93.8963 14.98333391 77607,6950.182,96.107,574.007,570.087,0.0
55746.0,STARLINK-5579,PAYLOAD,2024-07-27 09:58:16,14.98331397,0.000286,70.0003,292.7161,265.1115,94.9718,-3.4398e-05,-5.03e-06,0.0,0 STARLINK-5579,1 55746U 23028F   24209.41546581 -.00000503  00000-0 -34398-4 0  9994,2 55746  70.0003 292.7161 0002860 265.1115  94.9718 14.98331397 77622,6950.189,96.107,574.041,570.066,0.0
55746.0,STARLINK-5579,PAYLOAD,2024-07-27 16:22:48,14.98330155,0.0002865,70.0003,292.0429,265.4539,94.6292,-4.7218e-05,-6.56e-06,0.0,0 STARLINK-5579,1 55746U 23028F   24209.68250680 -.00000656  00000-0 -47218-4 0  9999,2 55746  70.0003 292.0429 0002865 265.4539  94.6292 14.98330155 77669,6950.192,96.107,574.049,570.066,0.0
55746.0,STARLINK-5579,PAYLOAD,2024-07-28 11:36:24,14.98333972,0.0003204,69.9992,290.0215,265.1036,94.9757,4.9787e-05,5.01e-06,0.0,0 STARLINK-5579,1 55746U 23028F   24210.48362104  .00000501  00000-0  49787-4 0  9994,2 55746  69.9992 290.0215 0003204 265.1036  94.9757 14.98333972 77783,6950.181,96.107,574.272,569.819,0.0
55746.0,STARLINK-5579,PAYLOAD,2024-07-28 14:48:40,14.98334985,0.0002937,70.0,289.6858,264.6939,95.3885,4.6607e-05,4.63e-06,0.0,0 STARLINK-5579,1 55746U 23028F   24210.61714021  .00000463  00000-0  46607-4 0  9993,2 55746  70.0000 289.6858 0002937 264.6939  95.3885 14.98334985 77806,6950.177,96.107,574.084,570.001,0.0
55746.0,STARLINK-5579,PAYLOAD,2024-07-29 05:13:53,14.98326585,0.0003056,69.9995,288.1702,266.1707,93.9103,7.7473e-05,8.31e-06,0.0,0 STARLINK-5579,1 55746U 23028F   24211.21798466  .00000831  00000-0  77473-4 0  9999,2 55746  69.9995 288.1702 0003056 266.1707  93.9103 14.98326585 77894,6950.203,96.107,574.192,569.944,0.0
55746.0,STARLINK-5579,PAYLOAD,2024-07-29 11:38:26,14.98327774,0.0003061,69.9996,287.4972,266.716,93.3649,8.3442e-05,9.03e-06,0.0,0 STARLINK-5579,1 55746U 23028F   24211.48502447  .00000903  00000-0  83442-4 0  9993,2 55746  69.9996 287.4972 0003061 266.7160  93.3649 14.98327774 77936,6950.2,96.107,574.192,569.937,0.0
55746.0,STARLINK-5579,PAYLOAD,2024-07-29 14:50:42,14.98329515,0.000304,69.9996,287.1606,266.9517,93.1294,0.00010154,1.119e-05,0.0,0 STARLINK-5579,1 55746U 23028F   24211.61854340  .00001119  00000-0  10154-3 0  9999,2 55746  69.9996 287.1606 0003040 266.9517  93.1294 14.98329515 77953,6950.194,96.107,574.172,569.947,0.0
55746.0,STARLINK-5579,PAYLOAD,2024-07-30 05:15:54,14.98334077,0.0003085,69.9993,285.6447,267.1908,92.8898,2.238e-05,1.74e-06,0.0,0 STARLINK-5579,1 55746U 23028F   24212.21938269  .00000174  00000-0  22380-4 0  9994,2 55746  69.9993 285.6447 0003085 267.1908  92.8898 14.98334077 78048,6950.18,96.107,574.189,569.901,0.0
55746.0,STARLINK-5579,PAYLOAD,2024-07-30 11:40:26,14.98334835,0.0003041,69.9996,284.9729,267.4876,92.5935,3.9705e-05,3.81e-06,0.0,0 STARLINK-5579,1 55746U 23028F   24212.48642125  .00000381  00000-0  39705-4 0  9995,2 55746  69.9996 284.9729 0003041 267.4876  92.5935 14.98334835 78080,6950.178,96.107,574.156,569.929,0.0
55746.0,STARLINK-5579,PAYLOAD,2024-07-30 14:52:42,14.98336988,0.000295,69.9998,284.6367,266.8193,93.2628,7.2078e-05,7.67e-06,0.0,0 STARLINK-5579,1 55746U 23028F   24212.61993885  .00000767  00000-0  72078-4 0  9990,2 55746  69.9998 284.6367 0002950 266.8193  93.2628 14.98336988 78101,6950.171,96.107,574.087,569.986,0.0
55746.0,STARLINK-5579,PAYLOAD,2024-07-31 05:17:55,14.98327813,0.0002979,69.9993,283.1204,268.7916,91.2902,5.883e-05,6.09e-06,0.0,0 STARLINK-5579,1 55746U 23028F   24213.22078482  .00000609  00000-0  58830-4 0  9990,2 55746  69.9993 283.1204 0002979 268.7916  91.2902 14.98327813 78194,6950.2,96.107,574.135,569.994,0.0
55746.0,STARLINK-5579,PAYLOAD,2024-07-31 14:54:44,14.98326571,0.0002913,69.9999,282.1121,266.9835,93.0991,1.6616e-05,1.05e-06,0.0,0 STARLINK-5579,1 55746U 23028F   24213.62134711  .00000105  00000-0  16616-4 0  9999,2 55746  69.9999 282.1121 0002913 266.9835  93.0991 14.98326571 78250,6950.203,96.107,574.093,570.044,0.0
55746.0,STARLINK-5579,PAYLOAD,2024-07-31 21:19:16,14.98327753,0.0002905,69.9999,281.4388,267.3245,92.7581,3.5808e-05,3.34e-06,0.0,0 STARLINK-5579,1 55746U 23028F   24213.88838663  .00000334  00000-0  35808-4 0  9992,2 55746  69.9999 281.4388 0002905 267.3245  92.7581 14.98327753 78296,6950.2,96.107,574.084,570.046,0.0
55746.0,STARLINK-5579,PAYLOAD,2024-08-01 11:44:28,14.98338359,0.0003007,69.9994,279.9231,269.2811,90.8003,8.9106e-05,9.71e-06,0.0,0 STARLINK-5579,1 55746U 23028F   24214.48921767  .00000971  00000-0  89106-4 0  9994,2 55746  69.9994 279.9231 0003007 269.2811  90.8003 14.98338359 78386,6950.167,96.106,574.122,569.942,0.0
55746.0,STARLINK-5579,PAYLOAD,2024-08-01 21:21:17,14.98311205,0.0002827,69.9994,278.9124,267.1458,92.9377,0.00057599,6.783e-05,0.0,0 STARLINK-5579,1 55746U 23028F   24214.88978563  .00006783  00000-0  57599-3 0  9991,2 55746  69.9994 278.9124 0002827 267.1458  92.9377 14.98311205 78444,6950.251,96.108,574.081,570.151,0.0
55746.0,STARLINK-5579,PAYLOAD,2024-08-02 05:21:57,14.98327647,0.0002974,69.9995,278.0711,273.6365,86.4454,7.805e-05,8.38e-06,0.0,0 STARLINK-5579,1 55746U 23028F   24215.22358344  .00000838  00000-0  78050-4 0  9990,2 55746  69.9995 278.0711 0002974 273.6365  86.4454 14.98327647 78496,6950.2,96.107,574.132,569.998,0.0
